[
 {
   "active": "Yes",
   "location_id": 20,
   "location_name": "William Osler Health System - Brampton COVID 19 Testing Centre",
   "operated_by": "William Osler Health System",
   "city": "Brampton",
   "address": "20 Lynch Street",
   "postal_code": "L6Y 5B3",
   "province": "ON",
   "phone": "905-487-1249"
 },
 {
   "active": "Yes",
   "location_id": 167,
   "location_name": "160 Main Street South - Shoppers Drug Mart",
   "operated_by": "Shoppers",
   "city": "Brampton",
   "address": "160 Main Street South",
   "postal_code": "L6W 2E1 ",
   "province": "ON",
   "phone": "905-451-0111"
 },
 {
   "active": "Yes",
   "location_id": 168,
   "location_name": "10665 Bramalea Road - Shoppers Drug Mart",
   "operated_by": "Shoppers",
   "city": "Brampton",
   "address": "10665 Bramalea Road",
   "postal_code": "L6R 3P4",
   "province": "ON",
   "phone": "905-793-2011"
 },
 {
   "active": "Yes",
   "location_id": 169,
   "location_name": "34 A Avondale Boulevard - Shoppers Drug Mart",
   "operated_by": "Shoppers",
   "city": "Brampton",
   "address": "34 A Avondale Boulevard",
   "postal_code": "L6T 1H3",
   "province": "ON",
   "phone": "905-793-4444"
 },
 {
   "active": "Yes",
   "location_id": 170,
   "location_name": "366 Main Street North - Shoppers Drug Mart",
   "operated_by": "Shoppers",
   "city": "Brampton",
   "address": "366 Main Street North",
   "postal_code": "L6V 1P8",
   "province": "ON",
   "phone": "905-456-0167"
 },
 {
   "active": "Yes",
   "location_id": 171,
   "location_name": "10048 McLaughlin Road - Shoppers Drug Mart",
   "operated_by": "Shoppers",
   "city": "Brampton",
   "address": "10048 McLaughlin Road",
   "postal_code": "L7A 2X6",
   "province": "ON",
   "phone": "905-846-4444"
 },
 {
   "active": "Yes",
   "location_id": 172,
   "location_name": "1 Kennedy Road South - Shoppers Drug Mart",
   "operated_by": "Shoppers",
   "city": "Brampton",
   "address": "1 Kennedy Road South",
   "postal_code": "L6W 3C9",
   "province": "ON",
   "phone": "905-454-4464"
 },
 {
   "active": "Yes",
   "location_id": 173,
   "location_name": "3938 Cottrelle Boulevard - Shoppers Drug Mart",
   "operated_by": "Shoppers",
   "city": "Brampton",
   "address": "3938 Cottrelle Boulevard",
   "postal_code": "L6P 2R1",
   "province": "ON",
   "phone": "905-794-7071"
 },
 {
   "active": "Yes",
   "location_id": 209,
   "location_name": "11965 Hurontario Street - Shoppers Drug Mart",
   "operated_by": "Shoppers",
   "city": "Brampton",
   "address": "11965 Hurontario Street",
   "postal_code": "L6Z 4P7",
   "province": "ON",
   "phone": "905-495-0311"
 },
 {
   "active": "Yes",
   "location_id": 224,
   "location_name": "545 Steeles Avenue West - Rexall",
   "operated_by": "Rexall",
   "city": "Brampton",
   "address": "545 Steeles Avenue West, Unit A01",
   "postal_code": "L6Y 4E7",
   "province": "ON",
   "phone": ""
 },
 {
   "active": "Yes",
   "location_id": 254,
   "location_name": "8965 Chinguacousy Road - Shoppers Drug Mart",
   "operated_by": "Shoppers",
   "city": "Brampton",
   "address": "8965 Chinguacousy Road",
   "postal_code": "L6Y 0J2",
   "province": "ON",
   "phone": "905-454-1620"
 },
 {
   "active": "Yes",
   "location_id": 255,
   "location_name": "10970 Airport Road - Shoppers Drug Mart",
   "operated_by": "Shoppers",
   "city": "Brampton",
   "address": "10970 Airport Road",
   "postal_code": "L6R 0E1",
   "province": "ON",
   "phone": "905-793-0308"
 },
 {
   "active": "Yes",
   "location_id": 300,
   "location_name": "Kennedy Medical Plex Pharmacy IDA",
   "operated_by": "Retail Banner Group",
   "city": "Brampton",
   "address": "7-2 Kennedy Road South",
   "postal_code": "L6W 2W1",
   "province": "ON",
   "phone": "905-455-2929"
 },
 {
   "active": "Yes",
   "location_id": 302,
   "location_name": "Credit Ridge Remedy’s Rx Pharmacy",
   "operated_by": "Retail Banner Group",
   "city": "Brampton",
   "address": "7-9525 Mississauga Road",
   "postal_code": "L6X 0Z8",
   "province": "ON",
   "phone": "905-451-4888"
 },
 {
   "active": "Yes",
   "location_id": 328,
   "location_name": "Cornerstone Pharmacy",
   "operated_by": "Independent",
   "city": "Brampton",
   "address": "8990 Chinguacousy Road, Unit B19",
   "postal_code": "L6Y 5X6",
   "province": "ON",
   "phone": "905-450-6500"
 },
 {
   "active": "No",
   "location_id": 352,
   "location_name": "10661 Chinguacousy Road - Shoppers Drug Mart",
   "operated_by": "Shoppers",
   "city": "Brampton",
   "address": "10661 Chinguacousy Road, Bldg. C, Fletchers Meadow",
   "postal_code": "L7A 0N5",
   "province": "ON",
   "phone": "905-495-7220"
 },
 {
   "active": "No",
   "location_id": 355,
   "location_name": "980 Central Park Drive - Shoppers Drug Mart",
   "operated_by": "Shoppers",
   "city": "Brampton",
   "address": "980 Central Park Drive",
   "postal_code": "L6S 3L7",
   "province": "ON",
   "phone": "905-791-1797"
 },
 {
   "active": "No",
   "location_id": 356,
   "location_name": "930 North Park Drive - Shoppers Drug Mart",
   "operated_by": "Shoppers",
   "city": "Brampton",
   "address": "930 North Park Drive",
   "postal_code": " L6S 3Y5",
   "province": "ON",
   "phone": "905-792-3800"
 },
 {
   "active": "No",
   "location_id": 361,
   "location_name": "BramCity Pharmasave",
   "operated_by": "Independent",
   "city": "Brampton",
   "address": "14 Lisa Street",
   "postal_code": "L6T 4W2",
   "province": "ON",
   "phone": "905-460-0330"
 },
 {
   "active": "No",
   "location_id": 362,
   "location_name": "Midha Pharmacy Inc",
   "operated_by": "Independent",
   "city": "Brampton",
   "address": "1A-15 Fandor Way",
   "postal_code": "L7A 4S2",
   "province": "ON",
   "phone": "905-840-0057"
 },
 {
   "active": "No",
   "location_id": 368,
   "location_name": "10 Cottrelle Blvd - Dynacare",
   "operated_by": "Dynacare",
   "city": "Brampton",
   "address": "10 Cottrelle Boulevard",
   "postal_code": "L6S 0E2",
   "province": "ON",
   "phone": ""
 },
 {
   "active": "No",
   "location_id": 369,
   "location_name": "7700 Hurontario - Dynacare",
   "operated_by": "Dynacare",
   "city": "Brampton",
   "address": "7700 Hurontario Street",
   "postal_code": "L6Y 4M3",
   "province": "ON",
   "phone": ""
 },
 {
   "active": "No",
   "location_id": 370,
   "location_name": "9525 Mississauga Road - Dynacare",
   "operated_by": "Dynacare",
   "city": "Brampton",
   "address": "9525 Mississauga Road",
   "postal_code": "L6X 0Z8",
   "province": "ON",
   "phone": ""
 },
 {
   "active": "No",
   "location_id": 382,
   "location_name": "49 Mountainash Road - Shoppers Drug Mart",
   "operated_by": "Shoppers",
   "city": "Brampton",
   "address": " 49 Mountainash Road",
   "postal_code": "L6R 1W4",
   "province": "ON",
   "phone": "905-458-5526"
 },
 {
   "active": "No",
   "location_id": 386,
   "location_name": "25 Great Lakes Drive - Shoppers Drug Mart",
   "operated_by": "Shoppers",
   "city": "Brampton",
   "address": " 25 Great Lakes Drive",
   "postal_code": "L6R 2S5",
   "province": "ON",
   "phone": "905-799-0414"
 },
 {
   "active": "No",
   "location_id": 400,
   "location_name": "520 Charolais Blvd. - Shoppers Drug Mart",
   "operated_by": "Shoppers",
   "city": "Brampton",
   "address": " 520 Charolais Blvd.",
   "postal_code": "L6Y 0R5",
   "province": "ON",
   "phone": "905-451-5275"
 },
 {
   "active": "No",
   "location_id": 414,
   "location_name": "Queen Square COVID-19, Cold and Flu Clinic ",
   "operated_by": "Queen Square Family Health Team",
   "city": "Brampton",
   "address": "11692 Hurontario Street",
   "postal_code": " L7A 1K5",
   "province": "ON",
   "phone": ""
 },
 {
   "active": "No",
   "location_id": 417,
   "location_name": "Lawn Bowling Club Community Testing Site",
   "operated_by": "Home and Community Care",
   "city": "Brampton",
   "address": "8910 McLaughlin Road  South",
   "postal_code": "L6Y 4Z5",
   "province": "ON",
   "phone": "905-796-4922"
 },
 {
   "active": "No",
   "location_id": 423,
   "location_name": "MyHealth Community Testing Site ",
   "operated_by": "MyHealth",
   "city": "Brampton",
   "address": "2260 Bovaird Drive East, Suite 105B",
   "postal_code": "L6R 1Z1",
   "province": "ON",
   "phone": "888-503-1086"
 },
 {
   "active": "No",
   "location_id": 424,
   "location_name": "Embassy Grand Convention Centre  ",
   "operated_by": "Imandari Health ",
   "city": "Brampton",
   "address": "8800 The Gore Road",
   "postal_code": "L6P 0B1",
   "province": "ON",
   "phone": "905-366-7374"
 },
 {
   "active": "Yes",
   "location_id": 5,
   "location_name": "Oakville Trafalgar Memorial Hospital",
   "operated_by": "Halton Healthcare Services",
   "city": "Oakville",
   "address": "3001 Hospital Gate",
   "postal_code": "L6M 0L8",
   "province": "ON",
   "phone": "905-203-7963"
 },
 {
   "active": "Yes",
   "location_id": 281,
   "location_name": "2501 Third Line - Shoppers Drug Mart",
   "operated_by": "Shoppers",
   "city": "Oakville",
   "address": "2501 Third Line, Building B",
   "postal_code": "L6M 5A9",
   "province": "ON",
   "phone": "905-465-3000"
 },
 {
   "active": "Yes",
   "location_id": 282,
   "location_name": "2525 Prince Michael Drive - Shoppers Drug Mart",
   "operated_by": "Shoppers",
   "city": "Oakville",
   "address": "2525 Prince Michael Drive",
   "postal_code": "L6H 0E9",
   "province": "ON",
   "phone": "905-257-3938"
 },
 {
   "active": "Yes",
   "location_id": 286,
   "location_name": "550 Kerr St. - Shoppers Drug Mart",
   "operated_by": "Shoppers",
   "city": "Oakville",
   "address": "550 Kerr Street",
   "postal_code": "L6K 3C7",
   "province": "ON",
   "phone": "905-845-6674"
 }
]